     2              NAVIGATION DATA                         RINEX VERSION / TYPE
CCRINEXN V1.6.0 UX  CDDIS               18-NOV-20 07:09     PGM / RUN BY / DATE 
IGS BROADCAST EPHEMERIS FILE                                COMMENT             
    0.1118D-07 -0.1490D-07 -0.5960D-07  0.1192D-06          ION ALPHA           
    0.9830D+05 -0.1147D+06 -0.1966D+06  0.7209D+06          ION BETA            
    0.000000000000D+00 0.177635683940D-14   503808     2132 DELTA-UTC: A0,A1,T,W
    18                                                      LEAP SECONDS        
                                                            END OF HEADER       
 9 20 11 18 11 59 44.0-0.291024334729D-03-0.466116034659D-11 0.000000000000D+00
    0.430000000000D+02 0.112500000000D+01 0.506663961731D-08 0.397101242118D-01
    0.745058059692D-08 0.199638353661D-02 0.623054802418D-05 0.515360633469D+04
    0.302384000000D+06-0.242143869400D-07 0.201294901184D+01-0.558793544769D-08
    0.952582796794D+00 0.254343750000D+03 0.176530907891D+01-0.815248244076D-08
    0.885751180806D-10 0.100000000000D+01 0.213200000000D+04 0.000000000000D+00
    0.200000000000D+01 0.000000000000D+00 0.139698386192D-08 0.430000000000D+02
    0.295218000000D+06 0.400000000000D+01 0.000000000000D+00 0.000000000000D+00
10 20 11 18 11 59 44.0-0.507530290633D-03-0.909494701773D-11 0.000000000000D+00
    0.100000000000D+01-0.379687500000D+02 0.436946772016D-08 0.171693529928D+01
   -0.190734863281D-05 0.616476347204D-02 0.105891376734D-04 0.515367181397D+04
    0.302384000000D+06-0.109896063805D-06 0.979190359597D+00 0.912696123123D-07
    0.967107431609D+00 0.181031250000D+03-0.265576006106D+01-0.783496921506D-08
    0.422160441820D-09 0.100000000000D+01 0.213200000000D+04 0.000000000000D+00
    0.200000000000D+01 0.000000000000D+00 0.232830643654D-08 0.100000000000D+01
    0.301428000000D+06 0.400000000000D+01 0.000000000000D+00 0.000000000000D+00
16 20 11 18 11 59 44.0-0.238155014813D-03-0.534328137292D-11 0.000000000000D+00
    0.000000000000D+00 0.128906250000D+03 0.392230623694D-08 0.512090544249D+00
    0.686571002007D-05 0.117406500503D-01 0.736117362976D-05 0.515361053085D+04
    0.302384000000D+06-0.577419996262D-07-0.207008043059D+01 0.219792127609D-06
    0.976199461620D+00 0.245906250000D+03 0.628666800896D+00-0.792247285994D-08
    0.264296723305D-10 0.100000000000D+01 0.213200000000D+04 0.000000000000D+00
    0.200000000000D+01 0.000000000000D+00-0.107102096081D-07 0.000000000000D+00
    0.301236000000D+06 0.400000000000D+01 0.000000000000D+00 0.000000000000D+00
17 20 11 18 11 59 44.0 0.355517957360D-03 0.511590769747D-11 0.000000000000D+00
    0.360000000000D+02 0.293125000000D+02 0.434768109837D-08-0.530821620063D+00
    0.151246786118D-05 0.135899120942D-01 0.153109431267D-05 0.515349870300D+04
    0.302384000000D+06-0.197440385819D-06-0.105326965211D+01 0.726431608200D-07
    0.983113483103D+00 0.366906250000D+03-0.161358261077D+01-0.850856870175D-08
    0.189293599124D-09 0.100000000000D+01 0.213200000000D+04 0.000000000000D+00
    0.200000000000D+01 0.000000000000D+00-0.111758708954D-07 0.360000000000D+02
    0.295218000000D+06 0.400000000000D+01 0.000000000000D+00 0.000000000000D+00
19 20 11 18 11 59 44.0-0.767186284065D-04 0.500222085975D-11 0.000000000000D+00
    0.000000000000D+00 0.229062500000D+02 0.424481967092D-08 0.208040939587D+01
    0.102259218693D-05 0.903498870321D-02 0.553205609322D-06 0.515360514832D+04
    0.302384000000D+06 0.689178705216D-07-0.100787700695D+01-0.521540641785D-07
    0.981491471219D+00 0.378468750000D+03 0.174835547489D+01-0.813926760460D-08
    0.475019786481D-10 0.100000000000D+01 0.213200000000D+04 0.000000000000D+00
    0.200000000000D+01 0.000000000000D+00-0.153668224812D-07 0.000000000000D+00
    0.299226000000D+06 0.400000000000D+01 0.000000000000D+00 0.000000000000D+00
20 20 11 18 11 59 44.0 0.525970011950D-03-0.113686837722D-12 0.000000000000D+00
    0.800000000000D+01-0.521562500000D+02 0.492199073496D-08-0.311277340150D+01
   -0.262819230556D-05 0.584287720267D-02 0.104960054159D-04 0.515366819954D+04
    0.302384000000D+06-0.856816768646D-07 0.842549648992D+00 0.298023223877D-07
    0.935881854824D+00 0.164156250000D+03 0.276404672898D+01-0.801140513575D-08
    0.421088968617D-09 0.100000000000D+01 0.213200000000D+04 0.000000000000D+00
    0.200000000000D+01 0.000000000000D+00-0.838190317154D-08 0.800000000000D+01
    0.301758000000D+06 0.400000000000D+01 0.000000000000D+00 0.000000000000D+00
25 20 11 18 11 59 44.0 0.242637470365D-04 0.659383658785D-11 0.000000000000D+00
    0.600000000000D+01 0.122593750000D+03 0.411981446395D-08 0.207098032416D+01
    0.630691647530D-05 0.932690536138D-02 0.828877091408D-05 0.515371544838D+04
    0.302384000000D+06-0.121071934700D-06-0.216004181569D+01-0.180676579475D-06
    0.963431560277D+00 0.219906250000D+03 0.926803070074D+00-0.787961393183D-08
    0.725030200418D-10 0.100000000000D+01 0.213200000000D+04 0.000000000000D+00
    0.200000000000D+01 0.000000000000D+00 0.558793544769D-08 0.600000000000D+01
    0.297018000000D+06 0.400000000000D+01 0.000000000000D+00 0.000000000000D+00
29 20 11 18 11 59 44.0-0.238891225308D-03-0.761701812735D-11 0.000000000000D+00
    0.200000000000D+01 0.114687500000D+02 0.411445709794D-08-0.374662751533D+00
    0.420957803726D-06 0.148963672109D-02 0.116415321827D-05 0.515372549629D+04
    0.302384000000D+06 0.260770320892D-07-0.104119240756D+01 0.372529029846D-07
    0.984874693104D+00 0.367218750000D+03 0.226340604662D+01-0.820677041636D-08
    0.101075638777D-09 0.100000000000D+01 0.213200000000D+04 0.000000000000D+00
    0.200000000000D+01 0.000000000000D+00-0.102445483208D-07 0.200000000000D+01
    0.299046000000D+06 0.400000000000D+01 0.000000000000D+00 0.000000000000D+00
31 20 11 18 11 59 44.0-0.822041183710D-04-0.238742359215D-11 0.000000000000D+00
    0.260000000000D+02 0.181250000000D+02 0.447161483213D-08 0.265822223850D+01
    0.847503542900D-06 0.988951150794D-02 0.982545316219D-05 0.515369568825D+04
    0.302384000000D+06-0.109896063805D-06 0.310236363778D+01 0.149011611938D-07
    0.957156983213D+00 0.191281250000D+03 0.198398512689D+00-0.774282251964D-08
   -0.600382151184D-09 0.100000000000D+01 0.213200000000D+04 0.000000000000D+00
    0.200000000000D+01 0.000000000000D+00-0.130385160446D-07 0.260000000000D+02
    0.295255000000D+06 0.400000000000D+01 0.000000000000D+00 0.000000000000D+00
 1 20 11 18 12  0  0.0 0.806238502264D-03-0.397903932026D-11 0.000000000000D+00
    0.185000000000D+03-0.141375000000D+03 0.396623663825D-08-0.257413143977D+01
   -0.738538801670D-05 0.101249212166D-01 0.629015266895D-05 0.515370131111D+04
    0.302400000000D+06 0.126659870148D-06-0.566074424529D-01-0.108033418655D-06
    0.982607058899D+00 0.267843750000D+03 0.827117134532D+00-0.780068207258D-08
   -0.507163982558D-10 0.100000000000D+01 0.213200000000D+04 0.000000000000D+00
    0.280000000000D+01 0.000000000000D+00 0.512227416039D-08 0.185000000000D+03
    0.295218000000D+06 0.400000000000D+01 0.000000000000D+00 0.000000000000D+00
 2 20 11 18 12  0  0.0-0.544012524188D-03-0.466116034659D-11 0.000000000000D+00
    0.184000000000D+03-0.126093750000D+03 0.439232581514D-08-0.235351160084D+01
   -0.626966357231D-05 0.200731011573D-01 0.424124300480D-05 0.515356171608D+04
    0.302400000000D+06 0.275671482086D-06-0.136446960272D+00 0.111758708954D-06
    0.961441612794D+00 0.291437500000D+03-0.158554517721D+01-0.778961018282D-08
    0.142863093678D-11 0.100000000000D+01 0.213200000000D+04 0.000000000000D+00
    0.200000000000D+01 0.000000000000D+00-0.176951289177D-07 0.184000000000D+03
    0.295218000000D+06 0.400000000000D+01 0.000000000000D+00 0.000000000000D+00
 3 20 11 18 12  0  0.0-0.707572326064D-05-0.100044417195D-10 0.000000000000D+00
    0.290000000000D+02-0.567187500000D+02 0.424267672452D-08 0.251650298876D+01
   -0.298582017422D-05 0.325296446681D-02 0.109616667032D-04 0.515370961189D+04
    0.302400000000D+06-0.707805156708D-07 0.982156964357D+00-0.186264514923D-07
    0.967190705295D+00 0.168500000000D+03 0.899145307640D+00-0.765424740156D-08
    0.476805575152D-09 0.100000000000D+01 0.213200000000D+04 0.000000000000D+00
    0.200000000000D+01 0.000000000000D+00 0.186264514923D-08 0.290000000000D+02
    0.295218000000D+06 0.400000000000D+01 0.000000000000D+00 0.000000000000D+00
 4 20 11 18 12  0  0.0-0.156457535922D-03-0.352429196937D-11 0.000000000000D+00
    0.237000000000D+03-0.875000000000D+00 0.486341686655D-08-0.882347693117D+00
   -0.132247805595D-06 0.919473939575D-03 0.627711415291D-05 0.515360070992D+04
    0.302400000000D+06 0.316649675369D-07 0.206226890301D+01-0.372529029846D-07
    0.959825515488D+00 0.258593750000D+03-0.305269367763D+01-0.801033366255D-08
    0.428589281035D-11 0.100000000000D+01 0.213200000000D+04 0.000000000000D+00
    0.200000000000D+01 0.000000000000D+00-0.419095158577D-08 0.493000000000D+03
    0.295668000000D+06 0.400000000000D+01 0.000000000000D+00 0.000000000000D+00
 5 20 11 18 12  0  0.0-0.261859968305D-04-0.909494701773D-12 0.000000000000D+00
    0.550000000000D+02-0.555312500000D+02 0.466090843126D-08 0.287366174115D+00
   -0.269152224064D-05 0.605904450640D-02 0.977888703346D-05 0.515376703072D+04
    0.302400000000D+06-0.372529029846D-08 0.947859983750D+00 0.614672899246D-07
    0.954142881892D+00 0.187062500000D+03 0.893120975879D+00-0.799497587998D-08
    0.367515308488D-09 0.100000000000D+01 0.213200000000D+04 0.000000000000D+00
    0.200000000000D+01 0.000000000000D+00-0.111758708954D-07 0.550000000000D+02
    0.295218000000D+06 0.400000000000D+01 0.000000000000D+00 0.000000000000D+00
